{"fetched_at":"2026-07-12T07:15:18.323Z","source":"https://celestrak.org/NORAD/elements/gp.php?GROUP=kuiper&FORMAT=JSON","constellation":"kuiper","records":[{"OBJECT_NAME":"KUIPER-00540","OBJECT_ID":"2026-140T","EPOCH":"2026-07-11T13:51:43.070112","CLASSIFICATION_TYPE":"U","MEAN_MOTION":15.36919037,"ECCENTRICITY":0.00066263,"INCLINATION":51.883,"RA_OF_ASC_NODE":280.9443,"ARG_OF_PERICENTER":10.8065,"MEAN_ANOMALY":349.3063,"EPHEMERIS_TYPE":0,"NORAD_CAT_ID":69609,"ELEMENT_SET_NO":999,"REV_AT_EPOCH":498,"BSTAR":0.0003637808,"MEAN_MOTION_DOT":0.00012977,"MEAN_MOTION_DDOT":0},{"OBJECT_NAME":"KUIPER-00541","OBJECT_ID":"2026-140U","EPOCH":"2026-07-10T21:48:08.076384","CLASSIFICATION_TYPE":"U","MEAN_MOTION":15.38356975,"ECCENTRICITY":0.00083336,"INCLINATION":51.8827,"RA_OF_ASC_NODE":283.9683,"ARG_OF_PERICENTER":308.1236,"MEAN_ANOMALY":51.8999,"EPHEMERIS_TYPE":0,"NORAD_CAT_ID":69610,"ELEMENT_SET_NO":999,"REV_AT_EPOCH":488,"BSTAR":0.0003697798,"MEAN_MOTION_DOT":0.00013847,"MEAN_MOTION_DDOT":0},{"OBJECT_NAME":"KUIPER-00542","OBJECT_ID":"2026-140V","EPOCH":"2026-07-11T13:21:26.293248","CLASSIFICATION_TYPE":"U","MEAN_MOTION":15.38234454,"ECCENTRICITY":0.00079119,"INCLINATION":51.8812,"RA_OF_ASC_NODE":280.8032,"ARG_OF_PERICENTER":300.8666,"MEAN_ANOMALY":59.1543,"EPHEMERIS_TYPE":0,"NORAD_CAT_ID":69611,"ELEMENT_SET_NO":999,"REV_AT_EPOCH":498,"BSTAR":0.00038070745,"MEAN_MOTION_DOT":0.0001421,"MEAN_MOTION_DDOT":0},{"OBJECT_NAME":"KUIPER-00543","OBJECT_ID":"2026-140W","EPOCH":"2026-07-11T18:38:47.022432","CLASSIFICATION_TYPE":"U","MEAN_MOTION":15.36828687,"ECCENTRICITY":0.00081518,"INCLINATION":51.8774,"RA_OF_ASC_NODE":280.0144,"ARG_OF_PERICENTER":22.6917,"MEAN_ANOMALY":337.4428,"EPHEMERIS_TYPE":0,"NORAD_CAT_ID":69612,"ELEMENT_SET_NO":999,"REV_AT_EPOCH":501,"BSTAR":0.00071787883,"MEAN_MOTION_DOT":0.00025967,"MEAN_MOTION_DDOT":0},{"OBJECT_NAME":"KUIPER-00544","OBJECT_ID":"2026-140X","EPOCH":"2026-07-11T11:53:56.821056","CLASSIFICATION_TYPE":"U","MEAN_MOTION":15.38126834,"ECCENTRICITY":0.00065168,"INCLINATION":51.8799,"RA_OF_ASC_NODE":281.1405,"ARG_OF_PERICENTER":305.8745,"MEAN_ANOMALY":54.1636,"EPHEMERIS_TYPE":0,"NORAD_CAT_ID":69613,"ELEMENT_SET_NO":999,"REV_AT_EPOCH":497,"BSTAR":0.00047072379,"MEAN_MOTION_DOT":0.00017604,"MEAN_MOTION_DDOT":0},{"OBJECT_NAME":"KUIPER-00546","OBJECT_ID":"2026-140Y","EPOCH":"2026-07-11T12:58:01.365312","CLASSIFICATION_TYPE":"U","MEAN_MOTION":15.38810193,"ECCENTRICITY":0.00142602,"INCLINATION":51.8783,"RA_OF_ASC_NODE":280.6956,"ARG_OF_PERICENTER":250.2493,"MEAN_ANOMALY":109.6957,"EPHEMERIS_TYPE":0,"NORAD_CAT_ID":69614,"ELEMENT_SET_NO":999,"REV_AT_EPOCH":498,"BSTAR":0.00024595513,"MEAN_MOTION_DOT":0.00009228,"MEAN_MOTION_DDOT":0},{"OBJECT_NAME":"KUIPER-00547","OBJECT_ID":"2026-140Z","EPOCH":"2026-07-11T13:18:14.039424","CLASSIFICATION_TYPE":"U","MEAN_MOTION":15.37855649,"ECCENTRICITY":0.00108661,"INCLINATION":51.8825,"RA_OF_ASC_NODE":280.7952,"ARG_OF_PERICENTER":277.5828,"MEAN_ANOMALY":82.3925,"EPHEMERIS_TYPE":0,"NORAD_CAT_ID":69615,"ELEMENT_SET_NO":999,"REV_AT_EPOCH":498,"BSTAR":0.00027228269,"MEAN_MOTION_DOT":0.00009924,"MEAN_MOTION_DDOT":0},{"OBJECT_NAME":"KUIPER-00549","OBJECT_ID":"2026-140AA","EPOCH":"2026-07-11T12:12:03.945600","CLASSIFICATION_TYPE":"U","MEAN_MOTION":15.37288332,"ECCENTRICITY":0.00079376,"INCLINATION":51.881,"RA_OF_ASC_NODE":281.2228,"ARG_OF_PERICENTER":2.2674,"MEAN_ANOMALY":357.8347,"EPHEMERIS_TYPE":0,"NORAD_CAT_ID":69616,"ELEMENT_SET_NO":999,"REV_AT_EPOCH":497,"BSTAR":0.00028360768,"MEAN_MOTION_DOT":0.00010152,"MEAN_MOTION_DDOT":0},{"OBJECT_NAME":"KUIPER-00550","OBJECT_ID":"2026-140AB","EPOCH":"2026-07-11T06:49:24.091104","CLASSIFICATION_TYPE":"U","MEAN_MOTION":15.32851397,"ECCENTRICITY":0.00080942,"INCLINATION":51.8779,"RA_OF_ASC_NODE":282.7098,"ARG_OF_PERICENTER":47.3338,"MEAN_ANOMALY":312.8327,"EPHEMERIS_TYPE":0,"NORAD_CAT_ID":69617,"ELEMENT_SET_NO":999,"REV_AT_EPOCH":493,"BSTAR":0.00043294262,"MEAN_MOTION_DOT":0.00013605,"MEAN_MOTION_DDOT":0},{"OBJECT_NAME":"KUIPER-00551","OBJECT_ID":"2026-140AC","EPOCH":"2026-07-11T13:07:49.234368","CLASSIFICATION_TYPE":"U","MEAN_MOTION":15.38371575,"ECCENTRICITY":0.00125175,"INCLINATION":51.8777,"RA_OF_ASC_NODE":280.7418,"ARG_OF_PERICENTER":254.9847,"MEAN_ANOMALY":104.9755,"EPHEMERIS_TYPE":0,"NORAD_CAT_ID":69618,"ELEMENT_SET_NO":999,"REV_AT_EPOCH":498,"BSTAR":0.00039372991,"MEAN_MOTION_DOT":0.00014799,"MEAN_MOTION_DDOT":0},{"OBJECT_NAME":"KUIPER-00554","OBJECT_ID":"2026-140AD","EPOCH":"2026-07-11T11:42:12.202272","CLASSIFICATION_TYPE":"U","MEAN_MOTION":15.37920416,"ECCENTRICITY":0.00113368,"INCLINATION":51.8774,"RA_OF_ASC_NODE":281.0869,"ARG_OF_PERICENTER":276.6495,"MEAN_ANOMALY":83.3201,"EPHEMERIS_TYPE":0,"NORAD_CAT_ID":69619,"ELEMENT_SET_NO":999,"REV_AT_EPOCH":497,"BSTAR":0.0003910933,"MEAN_MOTION_DOT":0.00014472,"MEAN_MOTION_DDOT":0},{"OBJECT_NAME":"KUIPER-00555","OBJECT_ID":"2026-140AE","EPOCH":"2026-07-11T13:10:53.503104","CLASSIFICATION_TYPE":"U","MEAN_MOTION":15.41047562,"ECCENTRICITY":0.00300465,"INCLINATION":51.8814,"RA_OF_ASC_NODE":280.7627,"ARG_OF_PERICENTER":285.5243,"MEAN_ANOMALY":74.2428,"EPHEMERIS_TYPE":0,"NORAD_CAT_ID":69620,"ELEMENT_SET_NO":999,"REV_AT_EPOCH":498,"BSTAR":0.052259306,"MEAN_MOTION_DOT":0.02508038,"MEAN_MOTION_DDOT":0},{"OBJECT_NAME":"KUIPER-00556","OBJECT_ID":"2026-140AF","EPOCH":"2026-07-10T21:35:54.326976","CLASSIFICATION_TYPE":"U","MEAN_MOTION":15.38267241,"ECCENTRICITY":0.00120472,"INCLINATION":51.8809,"RA_OF_ASC_NODE":283.9056,"ARG_OF_PERICENTER":253.332,"MEAN_ANOMALY":106.6344,"EPHEMERIS_TYPE":0,"NORAD_CAT_ID":69621,"ELEMENT_SET_NO":999,"REV_AT_EPOCH":488,"BSTAR":0.00043067767,"MEAN_MOTION_DOT":0.00016169,"MEAN_MOTION_DDOT":0},{"OBJECT_NAME":"KUIPER-00557","OBJECT_ID":"2026-140AG","EPOCH":"2026-07-11T11:49:10.144992","CLASSIFICATION_TYPE":"U","MEAN_MOTION":15.37527254,"ECCENTRICITY":0.00099138,"INCLINATION":51.8807,"RA_OF_ASC_NODE":281.1278,"ARG_OF_PERICENTER":288.6863,"MEAN_ANOMALY":71.3047,"EPHEMERIS_TYPE":0,"NORAD_CAT_ID":69622,"ELEMENT_SET_NO":999,"REV_AT_EPOCH":497,"BSTAR":0.00034423744,"MEAN_MOTION_DOT":0.00012516,"MEAN_MOTION_DDOT":0},{"OBJECT_NAME":"KUIPER-00560","OBJECT_ID":"2026-140AH","EPOCH":"2026-07-11T13:12:18.764352","CLASSIFICATION_TYPE":"U","MEAN_MOTION":15.3879758,"ECCENTRICITY":0.00088299,"INCLINATION":51.8792,"RA_OF_ASC_NODE":280.7614,"ARG_OF_PERICENTER":295.2818,"MEAN_ANOMALY":64.7254,"EPHEMERIS_TYPE":0,"NORAD_CAT_ID":69623,"ELEMENT_SET_NO":999,"REV_AT_EPOCH":498,"BSTAR":0.00036564319,"MEAN_MOTION_DOT":0.00013892,"MEAN_MOTION_DDOT":0},{"OBJECT_NAME":"KUIPER-00561","OBJECT_ID":"2026-140AJ","EPOCH":"2026-07-11T17:56:40.634592","CLASSIFICATION_TYPE":"U","MEAN_MOTION":15.38107852,"ECCENTRICITY":0.00092458,"INCLINATION":51.8826,"RA_OF_ASC_NODE":279.8412,"ARG_OF_PERICENTER":285.6749,"MEAN_ANOMALY":74.3218,"EPHEMERIS_TYPE":0,"NORAD_CAT_ID":69624,"ELEMENT_SET_NO":999,"REV_AT_EPOCH":501,"BSTAR":-0.015960765,"MEAN_MOTION_DOT":-0.00566727,"MEAN_MOTION_DDOT":0},{"OBJECT_NAME":"KUIPER-00564","OBJECT_ID":"2026-140AK","EPOCH":"2026-07-11T13:17:28.081536","CLASSIFICATION_TYPE":"U","MEAN_MOTION":15.37273245,"ECCENTRICITY":0.00093758,"INCLINATION":51.8812,"RA_OF_ASC_NODE":280.7881,"ARG_OF_PERICENTER":286.252,"MEAN_ANOMALY":73.7435,"EPHEMERIS_TYPE":0,"NORAD_CAT_ID":69625,"ELEMENT_SET_NO":999,"REV_AT_EPOCH":498,"BSTAR":0.00027355671,"MEAN_MOTION_DOT":0.00009777,"MEAN_MOTION_DDOT":0},{"OBJECT_NAME":"KUIPER-00567","OBJECT_ID":"2026-140AL","EPOCH":"2026-07-10T18:25:40.629504","CLASSIFICATION_TYPE":"U","MEAN_MOTION":15.3799344,"ECCENTRICITY":0.00142138,"INCLINATION":51.8786,"RA_OF_ASC_NODE":284.516,"ARG_OF_PERICENTER":269.5283,"MEAN_ANOMALY":90.4076,"EPHEMERIS_TYPE":0,"NORAD_CAT_ID":69626,"ELEMENT_SET_NO":999,"REV_AT_EPOCH":486,"BSTAR":0.0054503294,"MEAN_MOTION_DOT":0.00213007,"MEAN_MOTION_DDOT":0},{"OBJECT_NAME":"KUIPER-00573","OBJECT_ID":"2026-140AM","EPOCH":"2026-07-11T11:54:24.402528","CLASSIFICATION_TYPE":"U","MEAN_MOTION":15.37412133,"ECCENTRICITY":0.00092307,"INCLINATION":51.8794,"RA_OF_ASC_NODE":281.1424,"ARG_OF_PERICENTER":272.338,"MEAN_ANOMALY":87.655,"EPHEMERIS_TYPE":0,"NORAD_CAT_ID":69627,"ELEMENT_SET_NO":999,"REV_AT_EPOCH":497,"BSTAR":0.00038987856,"MEAN_MOTION_DOT":0.00014175,"MEAN_MOTION_DDOT":0},{"OBJECT_NAME":"KUIPER-00258","OBJECT_ID":"2026-151A","EPOCH":"2026-07-11T22:00:03.000096","CLASSIFICATION_TYPE":"U","MEAN_MOTION":15.35390622,"ECCENTRICITY":0.00117582,"INCLINATION":51.867,"RA_OF_ASC_NODE":196.3633,"ARG_OF_PERICENTER":158.2931,"MEAN_ANOMALY":31.3233,"EPHEMERIS_TYPE":0,"NORAD_CAT_ID":69763,"ELEMENT_SET_NO":999,"REV_AT_EPOCH":187,"BSTAR":0.0014071629,"MEAN_MOTION_DOT":0.00049155,"MEAN_MOTION_DDOT":0},{"OBJECT_NAME":"KUIPER-00526","OBJECT_ID":"2026-151B","EPOCH":"2026-07-11T22:00:03.000096","CLASSIFICATION_TYPE":"U","MEAN_MOTION":15.37255875,"ECCENTRICITY":0.00061754,"INCLINATION":51.8762,"RA_OF_ASC_NODE":196.2415,"ARG_OF_PERICENTER":129.8638,"MEAN_ANOMALY":119.7456,"EPHEMERIS_TYPE":0,"NORAD_CAT_ID":69764,"ELEMENT_SET_NO":999,"REV_AT_EPOCH":163,"BSTAR":0.0013431685,"MEAN_MOTION_DOT":0.00049746,"MEAN_MOTION_DDOT":0},{"OBJECT_NAME":"KUIPER-00558","OBJECT_ID":"2026-151C","EPOCH":"2026-07-11T22:00:03.000096","CLASSIFICATION_TYPE":"U","MEAN_MOTION":15.36746603,"ECCENTRICITY":0.00077537,"INCLINATION":51.8754,"RA_OF_ASC_NODE":196.2753,"ARG_OF_PERICENTER":140.8916,"MEAN_ANOMALY":92.3556,"EPHEMERIS_TYPE":0,"NORAD_CAT_ID":69765,"ELEMENT_SET_NO":999,"REV_AT_EPOCH":211,"BSTAR":0.0012938563,"MEAN_MOTION_DOT":0.00047118,"MEAN_MOTION_DDOT":0},{"OBJECT_NAME":"KUIPER-00569","OBJECT_ID":"2026-151D","EPOCH":"2026-07-11T22:00:03.000096","CLASSIFICATION_TYPE":"U","MEAN_MOTION":15.37407366,"ECCENTRICITY":0.00052238,"INCLINATION":51.8785,"RA_OF_ASC_NODE":196.2261,"ARG_OF_PERICENTER":127.9419,"MEAN_ANOMALY":128.174,"EPHEMERIS_TYPE":0,"NORAD_CAT_ID":69766,"ELEMENT_SET_NO":999,"REV_AT_EPOCH":130,"BSTAR":0.0013464776,"MEAN_MOTION_DOT":0.00050111,"MEAN_MOTION_DDOT":0}]}
